{
    "links": {
        "self": "http://www.neowsapp.com/rest/v1/neo/3307058?api_key=iIulBulltgU6a56xZRHN4H3l9WmuAYTsLGpBGhQ2"
    },
    "id": "3307058",
    "neo_reference_id": "3307058",
    "name": "(2005 XO66)",
    "designation": "2005 XO66",
    "nasa_jpl_url": "http://ssd.jpl.nasa.gov/sbdb.cgi?sstr=3307058",
    "absolute_magnitude_h": 24.6,
    "estimated_diameter": {
        "kilometers": {
            "estimated_diameter_min": 0.0319561887,
            "estimated_diameter_max": 0.0714562102
        },
        "meters": {
            "estimated_diameter_min": 31.9561886721,
            "estimated_diameter_max": 71.4562101727
        },
        "miles": {
            "estimated_diameter_min": 0.0198566489,
            "estimated_diameter_max": 0.0444008168
        },
        "feet": {
            "estimated_diameter_min": 104.8431420431,
            "estimated_diameter_max": 234.436392583
        }
    },
    "is_potentially_hazardous_asteroid": false,
    "close_approach_data": [
        {
            "close_approach_date": "2005-10-08",
            "close_approach_date_full": "2005-Oct-08 01:27",
            "epoch_date_close_approach": 1128734820000,
            "relative_velocity": {
                "kilometers_per_second": "13.4060610177",
                "kilometers_per_hour": "48261.8196635645",
                "miles_per_hour": "29988.0178903965"
            },
            "miss_distance": {
                "astronomical": "0.0471192867",
                "lunar": "18.3294025263",
                "kilometers": "7048944.926239329",
                "miles": "4380011.2733435802"
            },
            "orbiting_body": "Mars"
        },
        {
            "close_approach_date": "2005-12-19",
            "close_approach_date_full": "2005-Dec-19 23:03",
            "epoch_date_close_approach": 1135033380000,
            "relative_velocity": {
                "kilometers_per_second": "8.403068968",
                "kilometers_per_hour": "30251.048284692",
                "miles_per_hour": "18796.8249744521"
            },
            "miss_distance": {
                "astronomical": "0.0127557713",
                "lunar": "4.9619950357",
                "kilometers": "1908236.216687131",
                "miles": "1185723.0023431678"
            },
            "orbiting_body": "Earth"
        },
        {
            "close_approach_date": "2085-12-04",
            "close_approach_date_full": "2085-Dec-04 09:20",
            "epoch_date_close_approach": 3658296000000,
            "relative_velocity": {
                "kilometers_per_second": "11.7428750945",
                "kilometers_per_hour": "42274.3503401492",
                "miles_per_hour": "26267.6372988555"
            },
            "miss_distance": {
                "astronomical": "0.0974841885",
                "lunar": "37.9213493265",
                "kilometers": "14583426.958278495",
                "miles": "9061721.314273431"
            },
            "orbiting_body": "Mars"
        }
    ],
    "orbital_data": {
        "orbit_id": "9",
        "orbit_determination_date": "2017-04-06 09:09:39",
        "first_observation_date": "2005-12-10",
        "last_observation_date": "2005-12-20",
        "data_arc_in_days": 10,
        "observations_used": 32,
        "orbit_uncertainty": "7",
        "minimum_orbit_intersection": ".00960928",
        "jupiter_tisserand_invariant": "4.141",
        "epoch_osculation": "2459000.5",
        "eccentricity": ".4438117586942047",
        "semi_major_axis": "1.663850638168732",
        "inclination": "1.205590486525826",
        "ascending_node_longitude": "297.1215673472181",
        "orbital_period": "783.9167304290714",
        "perihelion_distance": ".9254141602385919",
        "perihelion_argument": "188.3995180719195",
        "aphelion_distance": "2.402287116098871",
        "perihelion_time": "2459243.510441810986",
        "mean_anomaly": "248.4017196519442",
        "mean_motion": ".4592324490931026",
        "equinox": "J2000",
        "orbit_class": {
            "orbit_class_type": "APO",
            "orbit_class_description": "Near-Earth asteroid orbits which cross the Earth’s orbit similar to that of 1862 Apollo",
            "orbit_class_range": "a (semi-major axis) > 1.0 AU; q (perihelion) < 1.017 AU"
        }
    },
    "is_sentry_object": false
}